{"fetched_at":"2026-03-29T02:12:04Z","count":15717,"tles":[{"name":"BEIDOU-3S M1S (C57)","line1":"1 40749U 15037B   26087.46129574 -.00000036  00000+0  00000+0 0  9999","line2":"2 40749  54.9387 304.8137 0004703  41.1359 318.9389  1.86254792 72627","category":"GPS"}]}